TRANSPORTER-15J         
1 66674U 25276J   25358.94967437  .00011939  00000+0  61091-3 0  9995
2 66674  97.4367  70.4632 0005261 246.0824 113.9858 15.16766946  3974
TRANSPORTER-15K         
1 66675U 25276K   25359.07916288  .00004644  00000+0  23807-3 0  9997
2 66675  97.4384  70.5991 0005450 251.3095 108.7547 15.17040244  3998
TRANSPORTER-15L         
1 66676U 25276L   25359.27911480  .00018526  00000+0  94335-3 0  9997
2 66676  97.4382  70.7914 0004794 244.1280 115.9459 15.16839703  4022
TRANSPORTER-15M         
1 66677U 25276M   25359.13830798  .00015322  00000+0  76562-3 0  9998
2 66677  97.4379  70.6707 0003894 253.4318 106.6488 15.17546607  4009
TRANSPORTER-15N         
1 66678U 25276N   25359.27837003  .00016878  00000+0  85582-3 0  9999
2 66678  97.4409  70.8018 0008287  22.4373 337.7221 15.16987152  4024
TRANSPORTER-15P         
1 66679U 25276P   25359.27990534  .00004351  00000+0  22533-3 0  9999
2 66679  97.4360  70.7828 0004722 246.6053 113.4684 15.16712440  4022
TRANSPORTER-15Q         
1 66680U 25276Q   25359.21225484  .00010954  00000+0  55928-3 0  9990
2 66680  97.4407  70.7353 0004840 236.3987 123.6784 15.16866532  4017
TRANSPORTER-15R         
1 66681U 25276R   25359.14027256  .00018710  00000+0  93424-3 0  9991
2 66681  97.4331  70.6534 0004941 265.5026  94.5643 15.17524889  4000
TRANSPORTER-15S         
1 66682U 25276S   25359.01155940 -.01194712  00000+0 -69428-1 0  9995
2 66682  97.4452  70.5585 0013715 159.6506 200.5276 15.15006170  3988
TRANSPORTER-15T         
1 66683U 25276T   25359.20999822  .00014915  00000+0  75555-3 0  9995
2 66683  97.4441  70.7507 0004762 234.2333 125.8458 15.17068591  4016
TRANSPORTER-15U         
1 66684U 25276U   25359.20637958  .00012638  00000+0  63537-3 0  9992
2 66684  97.4470  70.7636 0004623 229.4850 130.5982 15.17376367  4016
TRANSPORTER-15V         
1 66685U 25276V   25359.13890179  .00016554  00000+0  82703-3 0  9998
2 66685  97.4415  70.6824 0004036 253.1785 106.9006 15.17536428  4002
TRANSPORTER-15W         
1 66686U 25276W   25358.67972055  .00060911  00000+0  29615-2 0  9999
2 66686  97.4405  70.2223 0018183 243.6801 116.2566 15.18035485  3936
TRANSPORTER-15X         
1 66687U 25276X   25359.28101016  .00013580  00000+0  69397-3 0  9991
2 66687  97.4384  70.7868 0008097  46.2401 313.9501 15.16765530  4024
TRANSPORTER-15Y         
1 66688U 25276Y   25359.14223169  .00010028  00000+0  50885-3 0  9997
2 66688  97.4427  70.6830 0003767 237.2759 122.8112 15.17112958  4002
TRANSPORTER-15Z         
1 66689U 25276Z   25356.89428733  .02294864  00000+0  86131-1 0  9996
2 66689  97.4409  68.4858 0027227 260.8557  98.9599 15.23073772  3663
TRANSPORTER-15AA        
1 66690U 25276AA  25359.14232797  .00007515  00000+0  38259-3 0  9995
2 66690  97.4390  70.6704 0003694 236.9066 123.1813 15.17085370  4009
TRANSPORTER-15AB        
1 66691U 25276AB  25359.20589694  .00012540  00000+0  63101-3 0  9992
2 66691  97.4414  70.7461 0003785 238.5101 121.5763 15.17347302  4010
TRANSPORTER-15AC        
1 66692U 25276AC  25359.20262698  .00007044  00000+0  35532-3 0  9995
2 66692  97.4415  70.7541 0001778 253.0860 107.0178 15.17434141  4012
TRANSPORTER-15AD        
1 66693U 25276AD  25358.87269060  .00018934  00000+0  94155-3 0  9994
2 66693  97.4369  70.4100 0003241 264.5717  95.5147 15.17671154  3961
YAM-9                   
1 66694U 25276AE  25359.20100575 -.00910974  00000+0 -51287-1 0  9992
2 66694  97.4417  70.7513 0004854 149.8803 210.2710 15.15930781  4010
IRIDE FM1               
1 66695U 25276AF  25359.12314085  .00013067  00000+0  63960-3 0  9995
2 66695  97.4382  70.6976 0001761 136.1061 224.0314 15.18308505  4001
IRIDE FM2               
1 66696U 25276AG  25359.20334055  .00017574  00000+0  87943-3 0  9998
2 66696  97.4391  70.7391 0003511 296.1613  63.9259 15.17467498  4014
IRIDE FM3               
1 66697U 25276AH  25359.25626360  .00010764  00000+0  52915-3 0  9992
2 66697  97.4384  70.8212 0001454 147.3097 212.8227 15.18209792  4020
IRIDE FM4               
1 66698U 25276AJ  25359.20433024  .00012092  00000+0  60812-3 0  9992
2 66698  97.4388  70.7377 0002687 243.9275 116.1682 15.17379603  4014
IRIDE FM5               
1 66699U 25276AK  25359.26995562  .00129091  00000+0  63135-2 0  9997
2 66699  97.4401  70.8084 0004932 206.6371 153.4610 15.17617454  4020
IRIDE FM6               
1 66700U 25276AL  25359.25553550 -.00021735  00000+0 -10616-2 0  9990
2 66700  97.4413  70.8334 0006886 154.6039 205.5535 15.18244466  4022
IRIDE FM7               
1 66701U 25276AM  25359.20406837  .00012182  00000+0  61174-3 0  9991
2 66701  97.4415  70.7499 0003001 243.9201 116.1723 15.17429084  4010
IRIDE FM8               
1 66702U 25276AN  25359.20388525  .00013763  00000+0  69035-3 0  9995
2 66702  97.4390  70.7415 0002482 244.6677 115.4300 15.17441390  4015
PELICAN-6               
1 66703U 25276AP  25359.33334491 -.00053619  00000+0 -27030-2 0  9997
2 66703  97.4401  70.8735 0001038 220.3523 132.8847 15.17380495  5177
FLOCK 4H-1              
1 66704U 25276AQ  25359.25721958  .00011347  00000+0  55891-3 0  9994
2 66704  97.4378  70.8151 0002085 160.1949 199.9366 15.18123236  4021
FLOCK 4H-2              
1 66705U 25276AR  25359.25667407  .00010716  00000+0  52732-3 0  9993
2 66705  97.4372  70.8156 0001480 149.8895 210.2424 15.18174082  4020
FLOCK 4H-3              
1 66706U 25276AS  25359.20175755  .00006135  00000+0  30933-3 0  9998
2 66706  97.4440  70.7614 0002988 234.8645 125.2309 15.17503756  4016
FLOCK 4H-4              
1 66707U 25276AT  25359.14014603  .00007796  00000+0  39505-3 0  9994
2 66707  97.4425  70.6849 0003636 240.3521 119.7351 15.17235387  4001
FLOCK 4H-5              
1 66708U 25276AU  25359.25543808  .00009849  00000+0  48464-3 0  9996
2 66708  97.4378  70.8209 0001303 123.0459 237.0900 15.18199666  4023
FLOCK 4H-6              
1 66709U 25276AV  25359.12764868  .00010028  00000+0  49697-3 0  9994
2 66709  97.4426  70.7057 0002783 197.0150 163.0991 15.17942989  4009
FLOCK 4H-7              
1 66710U 25276AW  25359.20158963  .00005902  00000+0  29765-3 0  9997
2 66710  97.4385  70.7381 0001025 272.3882  87.7235 15.17512850  4016
FLOCK 4H-8              
1 66711U 25276AX  25359.20181884  .00010833  00000+0  54313-3 0  9992
2 66711  97.4427  70.7595 0002309 254.7826 105.3152 15.17517966  4017
FLOCK 4H-9              
1 66712U 25276AY  25359.25967394  .00013728  00000+0  67849-3 0  9990
2 66712  97.4418  70.8326 0002758 205.1176 154.9924 15.17957399  4023
FLOCK 4H-10             
1 66713U 25276AZ  25359.13939636  .00008167  00000+0  41290-3 0  9999
2 66713  97.4391  70.6744 0003484 241.9398 118.1483 15.17305090  4002
FLOCK 4H-11             
1 66714U 25276BA  25359.19929227  .00012774  00000+0  63370-3 0  9993
2 66714  97.4411  70.7588 0002011 262.6972  97.4033 15.17846801  4017
FLOCK 4H-12             
1 66715U 25276BB  25359.25732609  .00010068  00000+0  49662-3 0  9999
2 66715  97.4386  70.8170 0002144 175.2145 184.9110 15.18106682  4335
FLOCK 4H-13             
1 66716U 25276BC  25359.25504928  .00029679  00000+0  14460-2 0  9996
2 66716  97.4401  70.8331 0001671 127.7277 232.4109 15.18292884  4028
FLOCK 4H-14             
1 66717U 25276BD  25359.25284817  .00006813  00000+0  33467-3 0  9993
2 66717  97.4409  70.8344 0001768 130.0390 230.0999 15.18376637  3277
FLOCK 4H-15             
1 66718U 25276BE  25359.14147157  .00010194  00000+0  51690-3 0  9992
2 66718  97.4417  70.6812 0003074 256.5047 103.5844 15.17134211  4004
FLOCK 4H-16             
1 66719U 25276BF  25359.33334491 -.00052161  00000+0 -26364-2 0  9994
2 66719  97.4432  70.8796 0003258 240.1784  97.3960 15.17275496  3454
FLOCK 4H-17             
1 66720U 25276BG  25359.25730139  .00010511  00000+0  51843-3 0  9998
2 66720  97.4436  70.8407 0002909 180.3390 179.7842 15.18097024  4027
FLOCK 4H-18             
1 66721U 25276BH  25359.14087686  .00010246  00000+0  51904-3 0  9992
2 66721  97.4377  70.6661 0002441 271.3614  88.7340 15.17168057  4007
FLOCK 4H-19             
1 66722U 25276BJ  25359.25418355  .00016576  00000+0  81026-3 0  9996
2 66722  97.4382  70.8221 0002574 147.4220 212.7173 15.18302236  3317
FLOCK 4H-20             
1 66723U 25276BK  25359.25347104  .00011690  00000+0  57206-3 0  9995
2 66723  97.4418  70.8377 0003038 162.4257 197.7083 15.18344359  3272
FLOCK 4H-21             
1 66724U 25276BL  25359.25284778  .00009847  00000+0  48186-3 0  9991
2 66724  97.4384  70.8233 0002925 158.7136 201.4220 15.18390959  3277
FLOCK 4H-22             
1 66725U 25276BM  25359.20163121  .00006634  00000+0  33405-3 0  9994
2 66725  97.4372  70.7338 0001481 276.7334  83.3732 15.17520680  4010
FLOCK 4H-23             
1 66726U 25276BN  25359.13967544  .00011784  00000+0  59486-3 0  9997
2 66726  97.4437  70.6902 0003466 231.7792 128.3130 15.17251897  4005
FLOCK 4H-24             
1 66727U 25276BP  25359.20378852  .00006203  00000+0  31403-3 0  9993
2 66727  97.4437  70.7594 0002864 250.4974 109.5951 15.17354427  4011
FLOCK 4H-25             
1 66728U 25276BQ  25359.25425287  .00006195  00000+0  30581-3 0  9990
2 66728  97.4393  70.8269 0001767 115.0990 245.0428 15.18242017  3306
FLOCK 4H-26             
1 66729U 25276BR  25359.20722882  .00010301  00000+0  52154-3 0  9991
2 66729  97.4388  70.7362 0003677 249.9083 110.1755 15.17183301  4019
FLOCK 4H-27             
1 66730U 25276BS  25359.25659134  .00010335  00000+0  50955-3 0  9991
2 66730  97.4367  70.8151 0001410 124.0054 236.1314 15.18116440  4021
FLOCK 4H-28             
1 66731U 25276BT  25359.14098083  .00009377  00000+0  47533-3 0  9992
2 66731  97.4377  70.6678 0003184 251.5024 108.5864 15.17168941  4000
FLOCK 4H-29             
1 66732U 25276BU  25359.13891887 -.01622447  00000+0 -95433-1 0  9997
2 66732  97.4377  70.6688 0012863  22.1890 337.9896 15.15055725  4005
